{
  "type": "FeatureCollection",
  "features": [
    {
      "type": "Feature",
      "properties": {
        "norad_id": 57399,
        "name": "TIANMU-1 07",
        "group": "weather",
        "lat": NaN,
        "lon": NaN,
        "alt_km": NaN,
        "timestamp": "2025-12-01T02:46:55.349827+00:00",
        "meta": {
          "OBJECT_NAME": "TIANMU-1 07",
          "OBJECT_ID": "2023-101A",
          "EPOCH": "2025-11-30T20:56:30.912000",
          "MEAN_MOTION": 15.27805332,
          "ECCENTRICITY": 0.0005532,
          "INCLINATION": 97.29,
          "RA_OF_ASC_NODE": 24.9858,
          "ARG_OF_PERICENTER": 111.9631,
          "MEAN_ANOMALY": 248.2197,
          "EPHEMERIS_TYPE": 0,
          "CLASSIFICATION_TYPE": "U",
          "NORAD_CAT_ID": 57399,
          "ELEMENT_SET_NO": 999,
          "REV_AT_EPOCH": 13134,
          "BSTAR": 0.00030229,
          "MEAN_MOTION_DOT": 8.141e-05,
          "MEAN_MOTION_DDOT": 0
        }
      },
      "geometry": {
        "type": "Point",
        "coordinates": [
          NaN,
          NaN
        ]
      }
    },
    {
      "type": "Feature",
      "properties": {
        "norad_id": 57400,
        "name": "TIANMU-1 08",
        "group": "weather",
        "lat": NaN,
        "lon": NaN,
        "alt_km": NaN,
        "timestamp": "2025-12-01T02:46:55.349843+00:00",
        "meta": {
          "OBJECT_NAME": "TIANMU-1 08",
          "OBJECT_ID": "2023-101B",
          "EPOCH": "2025-11-30T20:08:44.011392",
          "MEAN_MOTION": 15.27789704,
          "ECCENTRICITY": 0.0007377,
          "INCLINATION": 97.289,
          "RA_OF_ASC_NODE": 24.7534,
          "ARG_OF_PERICENTER": 117.315,
          "MEAN_ANOMALY": 242.8842,
          "EPHEMERIS_TYPE": 0,
          "CLASSIFICATION_TYPE": "U",
          "NORAD_CAT_ID": 57400,
          "ELEMENT_SET_NO": 999,
          "REV_AT_EPOCH": 13133,
          "BSTAR": 0.00030328,
          "MEAN_MOTION_DOT": 8.166e-05,
          "MEAN_MOTION_DDOT": 0
        }
      },
      "geometry": {
        "type": "Point",
        "coordinates": [
          NaN,
          NaN
        ]
      }
    },
    {
      "type": "Feature",
      "properties": {
        "norad_id": 57401,
        "name": "TIANMU-1 09",
        "group": "weather",
        "lat": NaN,
        "lon": NaN,
        "alt_km": NaN,
        "timestamp": "2025-12-01T02:46:55.349859+00:00",
        "meta": {
          "OBJECT_NAME": "TIANMU-1 09",
          "OBJECT_ID": "2023-101C",
          "EPOCH": "2025-11-30T21:24:17.650944",
          "MEAN_MOTION": 15.27811418,
          "ECCENTRICITY": 0.0006657,
          "INCLINATION": 97.2847,
          "RA_OF_ASC_NODE": 24.3245,
          "ARG_OF_PERICENTER": 116.0351,
          "MEAN_ANOMALY": 244.1574,
          "EPHEMERIS_TYPE": 0,
          "CLASSIFICATION_TYPE": "U",
          "NORAD_CAT_ID": 57401,
          "ELEMENT_SET_NO": 999,
          "REV_AT_EPOCH": 13134,
          "BSTAR": 0.00032192,
          "MEAN_MOTION_DOT": 8.678e-05,
          "MEAN_MOTION_DDOT": 0
        }
      },
      "geometry": {
        "type": "Point",
        "coordinates": [
          NaN,
          NaN
        ]
      }
    },
    {
      "type": "Feature",
      "properties": {
        "norad_id": 57402,
        "name": "TIANMU-1 10",
        "group": "weather",
        "lat": NaN,
        "lon": NaN,
        "alt_km": NaN,
        "timestamp": "2025-12-01T02:46:55.349876+00:00",
        "meta": {
          "OBJECT_NAME": "TIANMU-1 10",
          "OBJECT_ID": "2023-101D",
          "EPOCH": "2025-11-30T20:39:09.264960",
          "MEAN_MOTION": 15.27801073,
          "ECCENTRICITY": 0.0008403,
          "INCLINATION": 97.2926,
          "RA_OF_ASC_NODE": 25.131,
          "ARG_OF_PERICENTER": 117.7783,
          "MEAN_ANOMALY": 242.431,
          "EPHEMERIS_TYPE": 0,
          "CLASSIFICATION_TYPE": "U",
          "NORAD_CAT_ID": 57402,
          "ELEMENT_SET_NO": 999,
          "REV_AT_EPOCH": 13133,
          "BSTAR": 0.00029491,
          "MEAN_MOTION_DOT": 7.943e-05,
          "MEAN_MOTION_DDOT": 0
        }
      },
      "geometry": {
        "type": "Point",
        "coordinates": [
          NaN,
          NaN
        ]
      }
    },
    {
      "type": "Feature",
      "properties": {
        "norad_id": 57490,
        "name": "FENGYUN 3F",
        "group": "weather",
        "lat": NaN,
        "lon": NaN,
        "alt_km": NaN,
        "timestamp": "2025-12-01T02:46:55.349892+00:00",
        "meta": {
          "OBJECT_NAME": "FENGYUN 3F",
          "OBJECT_ID": "2023-111A",
          "EPOCH": "2025-11-30T19:44:54.349728",
          "MEAN_MOTION": 14.19888408,
          "ECCENTRICITY": 7.22e-05,
          "INCLINATION": 98.7098,
          "RA_OF_ASC_NODE": 43.3078,
          "ARG_OF_PERICENTER": 82.2398,
          "MEAN_ANOMALY": 277.8861,
          "EPHEMERIS_TYPE": 0,
          "CLASSIFICATION_TYPE": "U",
          "NORAD_CAT_ID": 57490,
          "ELEMENT_SET_NO": 999,
          "REV_AT_EPOCH": 12071,
          "BSTAR": 5.5491e-05,
          "MEAN_MOTION_DOT": 7.4e-07,
          "MEAN_MOTION_DDOT": 0
        }
      },
      "geometry": {
        "type": "Point",
        "coordinates": [
          NaN,
          NaN
        ]
      }
    },
    {
      "type": "Feature",
      "properties": {
        "norad_id": 58584,
        "name": "ARKTIKA-M 2",
        "group": "weather",
        "lat": NaN,
        "lon": NaN,
        "alt_km": NaN,
        "timestamp": "2025-12-01T02:46:55.349914+00:00",
        "meta": {
          "OBJECT_NAME": "ARKTIKA-M 2",
          "OBJECT_ID": "2023-198A",
          "EPOCH": "2025-11-25T09:09:19.764864",
          "MEAN_MOTION": 2.00606686,
          "ECCENTRICITY": 0.68638015,
          "INCLINATION": 63.2269,
          "RA_OF_ASC_NODE": 176.763,
          "ARG_OF_PERICENTER": 268.1765,
          "MEAN_ANOMALY": 18.8388,
          "EPHEMERIS_TYPE": 0,
          "CLASSIFICATION_TYPE": "U",
          "NORAD_CAT_ID": 58584,
          "ELEMENT_SET_NO": 999,
          "REV_AT_EPOCH": 1423,
          "BSTAR": 0,
          "MEAN_MOTION_DOT": 2.01e-06,
          "MEAN_MOTION_DDOT": 0
        }
      },
      "geometry": {
        "type": "Point",
        "coordinates": [
          NaN,
          NaN
        ]
      }
    },
    {
      "type": "Feature",
      "properties": {
        "norad_id": 58645,
        "name": "TIANMU-1 11",
        "group": "weather",
        "lat": NaN,
        "lon": NaN,
        "alt_km": NaN,
        "timestamp": "2025-12-01T02:46:55.349935+00:00",
        "meta": {
          "OBJECT_NAME": "TIANMU-1 11",
          "OBJECT_ID": "2023-205A",
          "EPOCH": "2025-11-30T20:47:56.965920",
          "MEAN_MOTION": 15.2437533,
          "ECCENTRICITY": 0.0009151,
          "INCLINATION": 97.3622,
          "RA_OF_ASC_NODE": 354.7006,
          "ARG_OF_PERICENTER": 356.1904,
          "MEAN_ANOMALY": 3.9263,
          "EPHEMERIS_TYPE": 0,
          "CLASSIFICATION_TYPE": "U",
          "NORAD_CAT_ID": 58645,
          "ELEMENT_SET_NO": 999,
          "REV_AT_EPOCH": 10728,
          "BSTAR": 0.00028138,
          "MEAN_MOTION_DOT": 6.829e-05,
          "MEAN_MOTION_DDOT": 0
        }
      },
      "geometry": {
        "type": "Point",
        "coordinates": [
          NaN,
          NaN
        ]
      }
    },
    {
      "type": "Feature",
      "properties": {
        "norad_id": 58646,
        "name": "TIANMU-1 12",
        "group": "weather",
        "lat": NaN,
        "lon": NaN,
        "alt_km": NaN,
        "timestamp": "2025-12-01T02:46:55.349951+00:00",
        "meta": {
          "OBJECT_NAME": "TIANMU-1 12",
          "OBJECT_ID": "2023-205B",
          "EPOCH": "2025-11-30T21:25:38.199072",
          "MEAN_MOTION": 15.24287,
          "ECCENTRICITY": 0.0006934,
          "INCLINATION": 97.3609,
          "RA_OF_ASC_NODE": 354.5356,
          "ARG_OF_PERICENTER": 342.3918,
          "MEAN_ANOMALY": 17.7078,
          "EPHEMERIS_TYPE": 0,
          "CLASSIFICATION_TYPE": "U",
          "NORAD_CAT_ID": 58646,
          "ELEMENT_SET_NO": 999,
          "REV_AT_EPOCH": 10727,
          "BSTAR": 0.00028778,
          "MEAN_MOTION_DOT": 6.964e-05,
          "MEAN_MOTION_DDOT": 0
        }
      },
      "geometry": {
        "type": "Point",
        "coordinates": [
          NaN,
          NaN
        ]
      }
    }
  ]
}