TIANMU-1 07             
1 57399U 23101A   25334.87258000  .00008141  00000+0  30229-3 0  9999
2 57399  97.2900  24.9858 0005532 111.9631 248.2197 15.27805332131346
TIANMU-1 08             
1 57400U 23101B   25334.83939828  .00008166  00000+0  30328-3 0  9999
2 57400  97.2890  24.7534 0007377 117.3150 242.8842 15.27789704131331
TIANMU-1 09             
1 57401U 23101C   25334.89187096  .00008678  00000+0  32192-3 0  9997
2 57401  97.2847  24.3245 0006657 116.0351 244.1574 15.27811418131344
TIANMU-1 10             
1 57402U 23101D   25334.86052390  .00007943  00000+0  29491-3 0  9995
2 57402  97.2926  25.1310 0008403 117.7783 242.4310 15.27801073131337
FENGYUN 3F              
1 57490U 23111A   25334.82285127  .00000074  00000+0  55491-4 0  9993
2 57490  98.7098  43.3078 0000722  82.2398 277.8861 14.19888408120717
ARKTIKA-M 2             
1 58584U 23198A   25329.38147876  .00000201  00000+0  00000+0 0  9999
2 58584  63.2269 176.7630 6863801 268.1765  18.8388  2.00606686 14237
TIANMU-1 11             
1 58645U 23205A   25334.86663155  .00006829  00000+0  28138-3 0  9996
2 58645  97.3622 354.7006 0009151 356.1904   3.9263 15.24375330107282
TIANMU-1 12             
1 58646U 23205B   25334.89280323  .00006964  00000+0  28778-3 0  9992
2 58646  97.3609 354.5356 0006934 342.3918  17.7078 15.24287000107274
